{"type": "FeatureCollection", "features": [ {"type": "Feature", "properties": {"norad_id": 67124, "name": "STARLINK-36195", "group": "last-30-days", "lat": -10.902808347776507, "lon": 99.59188681953317, "alt_km": 279.8061412571642, "timestamp": "2025-12-20T18:51:30.450120+00:00", "meta": {"OBJECT_NAME": "STARLINK-36195", "OBJECT_ID": "2025-299Y", "EPOCH": "2025-12-19T20:00:01.999008", "MEAN_MOTION": 16.00709813, "ECCENTRICITY": 0.0001826, "INCLINATION": 43.0003, "RA_OF_ASC_NODE": 273.6523, "ARG_OF_PERICENTER": 262.3985, "MEAN_ANOMALY": 202.8548, "EPHEMERIS_TYPE": 0, "CLASSIFICATION_TYPE": "U", "NORAD_CAT_ID": 67124, "ELEMENT_SET_NO": 999, "REV_AT_EPOCH": 195, "BSTAR": -0.0025343, "MEAN_MOTION_DOT": -0.01402643, "MEAN_MOTION_DDOT": 0.0006134}, "tle": {"line1": "1 67124U 25299Y   25353.83335647 -.01402643  61340-3 -25343-2 0  9992", "line2": "2 67124  43.0003 273.6523 0001826 262.3985 202.8548 16.00709813  1951"}}, "geometry": {"type": "Point", "coordinates": [99.59188681953317, -10.902808347776507]}}, {"type": "Feature", "properties": {"norad_id": 67125, "name": "STARLINK-36219", "group": "last-30-days", "lat": -11.623351860898167, "lon": 100.41191673897791, "alt_km": 279.8217269734214, "timestamp": "2025-12-20T18:51:30.450130+00:00", "meta": {"OBJECT_NAME": "STARLINK-36219", "OBJECT_ID": "2025-299Z", "EPOCH": "2025-12-19T20:00:01.999008", "MEAN_MOTION": 16.0080838, "ECCENTRICITY": 0.0001733, "INCLINATION": 43.0001, "RA_OF_ASC_NODE": 273.65, "ARG_OF_PERICENTER": 266.3563, "MEAN_ANOMALY": 199.697, "EPHEMERIS_TYPE": 0, "CLASSIFICATION_TYPE": "U", "NORAD_CAT_ID": 67125, "ELEMENT_SET_NO": 999, "REV_AT_EPOCH": 195, "BSTAR": -0.0025543, "MEAN_MOTION_DOT": -0.01421534, "MEAN_MOTION_DDOT": 0.00062933}, "tle": {"line1": "1 67125U 25299Z   25353.83335647 -.01421534  62933-3 -25543-2 0  9994", "line2": "2 67125  43.0001 273.6500 0001733 266.3563 199.6970 16.00808380  1959"}}, "geometry": {"type": "Point", "coordinates": [100.41191673897791, -11.623351860898167]}}, {"type": "Feature", "properties": {"norad_id": 67126, "name": "STARLINK-36223", "group": "last-30-days", "lat": -12.535577323863958, "lon": 101.46042746868136, "alt_km": 279.3168834648368, "timestamp": "2025-12-20T18:51:30.450143+00:00", "meta": {"OBJECT_NAME": "STARLINK-36223", "OBJECT_ID": "2025-299AA", "EPOCH": "2025-12-19T20:00:01.999008", "MEAN_MOTION": 16.00919732, "ECCENTRICITY": 0.0001743, "INCLINATION": 43.0001, "RA_OF_ASC_NODE": 273.6476, "ARG_OF_PERICENTER": 260.6071, "MEAN_ANOMALY": 206.4069, "EPHEMERIS_TYPE": 0, "CLASSIFICATION_TYPE": "U", "NORAD_CAT_ID": 67126, "ELEMENT_SET_NO": 999, "REV_AT_EPOCH": 195, "BSTAR": -0.0025199, "MEAN_MOTION_DOT": -0.01411572, "MEAN_MOTION_DDOT": 0.00062201}, "tle": {"line1": "1 67126U 25299AA  25353.83335647 -.01411572  62201-3 -25199-2 0  9991", "line2": "2 67126  43.0001 273.6476 0001743 260.6071 206.4069 16.00919732  1954"}}, "geometry": {"type": "Point", "coordinates": [101.46042746868136, -12.535577323863958]}}, {"type": "Feature", "properties": {"norad_id": 67127, "name": "STARLINK-36164", "group": "last-30-days", "lat": -13.312083634704178, "lon": 102.36264460454082, "alt_km": 279.51634739627843, "timestamp": "2025-12-20T18:51:30.450155+00:00", "meta": {"OBJECT_NAME": "STARLINK-36164", "OBJECT_ID": "2025-299AB", "EPOCH": "2025-12-19T20:00:01.999008", "MEAN_MOTION": 16.01035564, "ECCENTRICITY": 0.0001724, "INCLINATION": 43.0001, "RA_OF_ASC_NODE": 273.6455, "ARG_OF_PERICENTER": 270.3556, "MEAN_ANOMALY": 197.5191, "EPHEMERIS_TYPE": 0, "CLASSIFICATION_TYPE": "U", "NORAD_CAT_ID": 67127, "ELEMENT_SET_NO": 999, "REV_AT_EPOCH": 195, "BSTAR": -0.0025515, "MEAN_MOTION_DOT": -0.01438589, "MEAN_MOTION_DDOT": 0.00064487}, "tle": {"line1": "1 67127U 25299AB  25353.83335647 -.01438589  64487-3 -25515-2 0  9999", "line2": "2 67127  43.0001 273.6455 0001724 270.3556 197.5191 16.01035564  1956"}}, "geometry": {"type": "Point", "coordinates": [102.36264460454082, -13.312083634704178]}}, {"type": "Feature", "properties": {"norad_id": 67128, "name": "STARLINK-35685", "group": "last-30-days", "lat": -15.981997340719287, "lon": 105.5424784254145, "alt_km": 279.0308234143895, "timestamp": "2025-12-20T18:51:30.450165+00:00", "meta": {"OBJECT_NAME": "STARLINK-35685", "OBJECT_ID": "2025-299AC", "EPOCH": "2025-12-19T20:00:01.999008", "MEAN_MOTION": 16.00926922, "ECCENTRICITY": 0.000181, "INCLINATION": 42.9999, "RA_OF_ASC_NODE": 273.6351, "ARG_OF_PERICENTER": 261.83, "MEAN_ANOMALY": 210.0776, "EPHEMERIS_TYPE": 0, "CLASSIFICATION_TYPE": "U", "NORAD_CAT_ID": 67128, "ELEMENT_SET_NO": 999, "REV_AT_EPOCH": 195, "BSTAR": -0.0023167, "MEAN_MOTION_DOT": -0.0129967, "MEAN_MOTION_DDOT": 0.00053464}, "tle": {"line1": "1 67128U 25299AC  25353.83335647 -.01299670  53464-3 -23167-2 0  9990", "line2": "2 67128  42.9999 273.6351 0001810 261.8300 210.0776 16.00926922  1950"}}, "geometry": {"type": "Point", "coordinates": [105.5424784254145, -15.981997340719287]}}, {"type": "Feature", "properties": {"norad_id": 67129, "name": "STARLINK-36214", "group": "last-30-days", "lat": -14.270899600323993, "lon": 103.48981064890812, "alt_km": 279.0522067890388, "timestamp": "2025-12-20T18:51:30.450175+00:00", "meta": {"OBJECT_NAME": "STARLINK-36214", "OBJECT_ID": "2025-299AD", "EPOCH": "2025-12-19T20:00:01.999008", "MEAN_MOTION": 16.01158914, "ECCENTRICITY": 0.0001742, "INCLINATION": 43, "RA_OF_ASC_NODE": 273.6428, "ARG_OF_PERICENTER": 266.7405, "MEAN_ANOMALY": 202.1415, "EPHEMERIS_TYPE": 0, "CLASSIFICATION_TYPE": "U", "NORAD_CAT_ID": 67129, "ELEMENT_SET_NO": 999, "REV_AT_EPOCH": 195, "BSTAR": -0.0025178, "MEAN_MOTION_DOT": -0.01429951, "MEAN_MOTION_DDOT": 0.00063863}, "tle": {"line1": "1 67129U 25299AD  25353.83335647 -.01429951  63863-3 -25178-2 0  9996", "line2": "2 67129  43.0000 273.6428 0001742 266.7405 202.1415 16.01158914  1956"}}, "geometry": {"type": "Point", "coordinates": [103.48981064890812, -14.270899600323993]}}, {"type": "Feature", "properties": {"norad_id": 67130, "name": "STARLINK-36194", "group": "last-30-days", "lat": -19.134329673451187, "lon": 109.4912841980701, "alt_km": 278.7651093505683, "timestamp": "2025-12-20T18:51:30.450185+00:00", "meta": {"OBJECT_NAME": "STARLINK-36194", "OBJECT_ID": "2025-299AE", "EPOCH": "2025-12-19T20:00:01.999008", "MEAN_MOTION": 16.01154683, "ECCENTRICITY": 0.0001807, "INCLINATION": 42.9999, "RA_OF_ASC_NODE": 273.626, "ARG_OF_PERICENTER": 263.9129, "MEAN_ANOMALY": 212.2276, "EPHEMERIS_TYPE": 0, "CLASSIFICATION_TYPE": "U", "NORAD_CAT_ID": 67130, "ELEMENT_SET_NO": 999, "REV_AT_EPOCH": 195, "BSTAR": -0.0023426, "MEAN_MOTION_DOT": -0.01331344, "MEAN_MOTION_DDOT": 0.00056014}, "tle": {"line1": "1 67130U 25299AE  25353.83335647 -.01331344  56014-3 -23426-2 0  9990", "line2": "2 67130  42.9999 273.6260 0001807 263.9129 212.2276 16.01154683  1957"}}, "geometry": {"type": "Point", "coordinates": [109.4912841980701, -19.134329673451187]}}, {"type": "Feature", "properties": {"norad_id": 67131, "name": "ZIYUAN 3-04 (ZY 3-04)", "group": "last-30-days", "lat": 36.868504345741485, "lon": 63.19031233523802, "alt_km": 501.0518027520511, "timestamp": "2025-12-20T18:51:30.450195+00:00", "meta": {"OBJECT_NAME": "ZIYUAN 3-04 (ZY 3-04)", "OBJECT_ID": "2025-300A", "EPOCH": "2025-12-20T02:54:27.968256", "MEAN_MOTION": 15.21166252, "ECCENTRICITY": 0.00026311, "INCLINATION": 97.4921, "RA_OF_ASC_NODE": 68.1934, "ARG_OF_PERICENTER": 174.8508, "MEAN_ANOMALY": 185.2755, "EPHEMERIS_TYPE": 0, "CLASSIFICATION_TYPE": "U", "NORAD_CAT_ID": 67131, "ELEMENT_SET_NO": 999, "REV_AT_EPOCH": 61, "BSTAR": 5.9528032e-05, "MEAN_MOTION_DOT": 1.256e-05, "MEAN_MOTION_DDOT": 0}, "tle": {"line1": "1 67131U 25300A   25354.12115704  .00001256  00000+0  59528-4 0  9994", "line2": "2 67131  97.4921  68.1934 0002631 174.8508 185.2755 15.21166252   619"}}, "geometry": {"type": "Point", "coordinates": [63.19031233523802, 36.868504345741485]}}, {"type": "Feature", "properties": {"norad_id": 67132, "name": "CZ-4B R/B", "group": "last-30-days", "lat": -8.149677575053445, "lon": 70.31472901798726, "alt_km": 264.4646837398168, "timestamp": "2025-12-20T18:51:30.450205+00:00", "meta": {"OBJECT_NAME": "CZ-4B R/B", "OBJECT_ID": "2025-300B", "EPOCH": "2025-12-18T16:13:04.609056", "MEAN_MOTION": 15.63831828, "ECCENTRICITY": 0.01741973, "INCLINATION": 97.5563, "RA_OF_ASC_NODE": 66.966, "ARG_OF_PERICENTER": 9.3582, "MEAN_ANOMALY": 351.0851, "EPHEMERIS_TYPE": 0, "CLASSIFICATION_TYPE": "U", "NORAD_CAT_ID": 67132, "ELEMENT_SET_NO": 999, "REV_AT_EPOCH": 40, "BSTAR": 0.00019566238, "MEAN_MOTION_DOT": 0.00040543, "MEAN_MOTION_DDOT": 2.652968e-06}, "tle": {"line1": "1 67132U 25300B   25352.67574779  .00040543  26530-5  19566-3 0  9995", "line2": "2 67132  97.5563  66.9660 0174197   9.3582 351.0851 15.63831828   407"}}, "geometry": {"type": "Point", "coordinates": [70.31472901798726, -8.149677575053445]}}, {"type": "Feature", "properties": {"norad_id": 67160, "name": "GALILEO A", "group": "last-30-days", "lat": -18.547441828107516, "lon": -58.85889712618284, "alt_km": 22926.166110790542, "timestamp": "2025-12-20T18:51:30.450216+00:00", "meta": {"OBJECT_NAME": "GALILEO A", "OBJECT_ID": "2025-302A", "EPOCH": "2025-12-18T03:30:19.486368", "MEAN_MOTION": 1.72906186, "ECCENTRICITY": 0.00084238, "INCLINATION": 54.2406, "RA_OF_ASC_NODE": 107.2544, "ARG_OF_PERICENTER": 237.6458, "MEAN_ANOMALY": 122.2317, "EPHEMERIS_TYPE": 0, "CLASSIFICATION_TYPE": "U", "NORAD_CAT_ID": 67160, "ELEMENT_SET_NO": 999, "REV_AT_EPOCH": 2, "BSTAR": 0, "MEAN_MOTION_DOT": -7e-08, "MEAN_MOTION_DDOT": 0}, "tle": {"line1": "1 67160U 25302A   25352.14605887 -.00000007  00000+0  00000+0 0  9994", "line2": "2 67160  54.2406 107.2544 0008423 237.6458 122.2317  1.72906186    28"}}, "geometry": {"type": "Point", "coordinates": [-58.85889712618284, -18.547441828107516]}}]}